NORAD_CAT_ID,OBJECT_NAME,OBJECT_TYPE,EPOCH,MEAN_MOTION,ECCENTRICITY,INCLINATION,RA_OF_ASC_NODE,ARG_OF_PERICENTER,MEAN_ANOMALY,BSTAR,MEAN_MOTION_DOT,MEAN_MOTION_DDOT,TLE_LINE0,TLE_LINE1,TLE_LINE2,SEMIMAJOR_AXIS,PERIOD,APOGEE,PERIGEE,DECAYED
49449.0,STARLINK-3137,PAYLOAD,2022-02-28 06:00:00,15.08812757,0.0002151,53.217,340.1692,46.776,116.2741,0.0029326,0.00046659,0.0,0 STARLINK-3137,1 49449U 21104AT  22059.25001157  .00046659  00000-0  29326-2 0  9991,2 49449  53.2170 340.1692 0002151  46.7760 116.2741 15.08812757 17873,6917.964,95.439,541.317,538.341,0.0
49449.0,STARLINK-3137,PAYLOAD,2022-02-28 14:00:01,15.08823155,0.0001982,53.2169,338.6712,51.7023,122.9395,0.0021852,0.00034645,0.0,0 STARLINK-3137,1 49449U 21104AT  22059.58334491  .00034645  00000-0  21852-2 0  9995,2 49449  53.2169 338.6712 0001982  51.7023 122.9395 15.08823155  3615,6917.932,95.439,541.168,538.4259999999998,0.0
49449.0,STARLINK-3137,PAYLOAD,2022-02-28 22:00:00,15.08853709,0.0002111,53.2175,337.1765,52.2104,134.0107,-0.0014793,-0.00023764,0.0,0 STARLINK-3137,1 49449U 21104AT  22059.91667824 -.00023764  00000-0 -14793-2 0  9999,2 49449  53.2175 337.1765 0002111  52.2104 134.0107 15.08853709 17972,6917.8380000000025,95.437,541.164,538.243,0.0
49449.0,STARLINK-3137,PAYLOAD,2022-03-01 14:00:01,15.0881234,0.0001992,53.2167,334.1822,51.4668,157.9894,0.0023761,0.00037702,0.0,0 STARLINK-3137,1 49449U 21104AT  22060.58334491  .00037702  00000-0  23761-2 0  9995,2 49449  53.2167 334.1822 0001992  51.4668 157.9894 15.08812340 18071,6917.965,95.439,541.2080000000002,538.452,0.0
49449.0,STARLINK-3137,PAYLOAD,2022-03-01 22:00:01,15.0886207,0.0002072,53.2168,332.6868,51.4432,169.6498,-0.0034967,-0.00055544,0.0,0 STARLINK-3137,1 49449U 21104AT  22060.91668981 -.00055544  00000-0 -34967-2 0  9992,2 49449  53.2168 332.6868 0002072  51.4432 169.6498 15.08862070  3613,6917.813,95.436,541.111,538.245,0.0
49449.0,STARLINK-3137,PAYLOAD,2022-03-02 06:00:00,15.08806574,0.0002136,53.2166,331.1913,46.1503,186.4826,0.0019695,0.00031167,0.0,0 STARLINK-3137,1 49449U 21104AT  22061.25001157  .00031167  00000-0  19695-2 0  9990,2 49449  53.2166 331.1913 0002136  46.1503 186.4826 15.08806574 18173,6917.983,95.44,541.325,538.37,0.0
49449.0,STARLINK-3137,PAYLOAD,2022-03-02 14:00:01,15.087867499999998,0.0001931,53.217,329.6942,50.6308,193.5542,0.0029401,0.00046746,0.0,0 STARLINK-3137,1 49449U 21104AT  22061.58334491  .00046746  00000-0  29401-2 0  9991,2 49449  53.2170 329.6942 0001931  50.6308 193.5542 15.08786750 18220,6918.043000000002,95.441,541.244,538.572,0.0
49449.0,STARLINK-3137,PAYLOAD,2022-03-02 22:00:00,15.08828124,0.0002068,53.2167,328.1981,50.4394,205.2939,-0.0011994,-0.0001932,0.0,0 STARLINK-3137,1 49449U 21104AT  22061.91667824 -.00019320  00000-0 -11994-2 0  9995,2 49449  53.2167 328.1981 0002068  50.4394 205.2939 15.08828124  3607,6917.917,95.438,541.212,538.351,0.0
49449.0,STARLINK-3137,PAYLOAD,2022-03-03 06:00:00,15.08815435,0.0002166,53.2165,326.7025,46.6619,220.6408,0.0013602,0.00021412,0.0,0 STARLINK-3137,1 49449U 21104AT  22062.25001157  .00021412  00000-0  13602-2 0  9995,2 49449  53.2165 326.7025 0002166  46.6619 220.6408 15.08815435 18322,6917.955,95.439,541.319,538.322,0.0
49449.0,STARLINK-3137,PAYLOAD,2022-03-03 14:00:01,15.08804153,0.0002039,53.2167,325.2044,52.2515,226.6339,0.0030805,0.00049032,0.0,0 STARLINK-3137,1 49449U 21104AT  22062.58334491  .00049032  00000-0  30805-2 0  9993,2 49449  53.2167 325.2044 0002039  52.2515 226.6339 15.08804153  3605,6917.99,95.44,541.266,538.444,0.0
49449.0,STARLINK-3137,PAYLOAD,2022-03-03 22:00:00,15.08846255,0.0002178,53.2168,323.7092,51.4447,239.0126,-0.0012087,-0.00019477,0.0,0 STARLINK-3137,1 49449U 21104AT  22062.91667824 -.00019477  00000-0 -12087-2 0  9993,2 49449  53.2168 323.7092 0002178  51.4447 239.0126 15.08846255  3602,6917.861,95.437,541.2330000000002,538.22,0.0
49449.0,STARLINK-3137,PAYLOAD,2022-03-04 06:00:02,15.08839964,0.0002243,53.2165,322.2133,48.4221,253.6888,0.00062332,9.646e-05,0.0,0 STARLINK-3137,1 49449U 21104AT  22063.25002315  .00009646  00000-0  62332-3 0  9993,2 49449  53.2165 322.2133 0002243  48.4221 253.6888 15.08839964 18475,6917.88,95.438,541.297,538.194,0.0
49449.0,STARLINK-3137,PAYLOAD,2022-03-04 14:00:01,15.08823631,0.0002097,53.2167,320.7152,54.3877,259.3342,0.0033222,0.00052959,0.0,0 STARLINK-3137,1 49449U 21104AT  22063.58335648  .00052959  00000-0  33222-2 0  9997,2 49449  53.2167 320.7152 0002097  54.3877 259.3342 15.08823631  3602,6917.93,95.439,541.246,538.345,0.0
49449.0,STARLINK-3137,PAYLOAD,2022-03-04 22:00:00,15.08878501,0.0002182,53.2168,319.2201,51.8601,273.3985,-0.0039827,-0.00063186,0.0,0 STARLINK-3137,1 49449U 21104AT  22063.91667824 -.00063186  00000-0 -39827-2 0  9991,2 49449  53.2168 319.2201 0002182  51.8601 273.3985 15.08878501  3596,6917.763000000001,95.435,541.137,538.118,0.0
49449.0,STARLINK-3137,PAYLOAD,2022-03-05 06:00:00,15.0884411,0.0002185,53.2163,317.7239,48.2712,288.6025,0.00019312,2.787e-05,0.0,0 STARLINK-3137,1 49449U 21104AT  22064.25001157  .00002787  00000-0  19312-3 0  9996,2 49449  53.2163 317.7239 0002185  48.2712 288.6025 15.08844110  3572,6917.868,95.437,541.244,538.221,0.0
49449.0,STARLINK-3137,PAYLOAD,2022-03-05 14:00:01,15.08827328,0.0001993,53.2165,316.2259,54.5661,293.9162,0.0027758,0.00044151,0.0,0 STARLINK-3137,1 49449U 21104AT  22064.58334491  .00044151  00000-0  27758-2 0  9995,2 49449  53.2165 316.2259 0001993  54.5661 293.9162 15.08827328  3583,6917.919,95.438,541.163,538.405,0.0
49449.0,STARLINK-3137,PAYLOAD,2022-03-05 16:00:00,15.08851455,0.0002023,53.2167,315.8517,55.313,26.0633,0.00033227,5.006e-05,0.0,0 STARLINK-3137,1 49449U 21104AT  22064.66667824  .00005006  00000-0  33227-3 0  9998,2 49449  53.2167 315.8517 0002023  55.3130  26.0633 15.08851455 18696,6917.845,95.437,541.11,538.311,0.0
49449.0,STARLINK-3137,PAYLOAD,2022-03-05 22:00:01,15.08857729,0.0002086,53.2165,314.7307,51.2291,308.9201,-0.0027544,-0.0004388,0.0,0 STARLINK-3137,1 49449U 21104AT  22064.91668981 -.00043880  00000-0 -27544-2 0  9999,2 49449  53.2165 314.7307 0002086  51.2291 308.9201 15.08857729  3610,6917.826,95.436,541.134,538.248,0.0
49449.0,STARLINK-3137,PAYLOAD,2022-03-06 14:00:01,15.08843018,0.0001871,53.2161,311.7364,54.1328,329.1708,0.0010788,0.00016924,0.0,0 STARLINK-3137,1 49449U 21104AT  22065.58334491  .00016924  00000-0  10788-2 0  9998,2 49449  53.2161 311.7364 0001871  54.1328 329.1708 15.08843018  3578,6917.871,95.437,541.03,538.442,0.0
49449.0,STARLINK-3137,PAYLOAD,2022-03-06 22:00:00,15.08846924,0.0001962,53.2161,310.2415,50.2649,344.6483,-0.00071477,-0.00011648,0.0,0 STARLINK-3137,1 49449U 21104AT  22065.91667824 -.00011648  00000-0 -71477-3 0  9997,2 49449  53.2161 310.2415 0001962  50.2649 344.6483 15.08846924 18884,6917.859,95.437,541.082,538.367,0.0
49449.0,STARLINK-3137,PAYLOAD,2022-03-07 12:00:00,15.08814151,0.0001778,53.2157,307.6214,52.7001,272.5146,0.00099398,0.00015555,0.0,0 STARLINK-3137,1 49449U 21104AT  22066.50001157  .00015555  00000-0  99398-3 0  9995,2 49449  53.2157 307.6214 0001778  52.7001 272.5146 15.08814151  3639,6917.959,95.439,541.054,538.594,0.0
49449.0,STARLINK-3137,PAYLOAD,2022-03-07 22:00:00,15.08805024,0.000203,53.2155,305.7523,52.1396,17.5157,-0.00095127,-0.00015382,0.0,0 STARLINK-3137,1 49449U 21104AT  22066.91667824 -.00015382  00000-0 -95127-3 0  9995,2 49449  53.2155 305.7523 0002030  52.1396  17.5157 15.08805024 19031,6917.986999999999,95.44,541.257,538.448,0.0
49449.0,STARLINK-3137,PAYLOAD,2022-03-08 14:00:01,15.08794014,0.0001932,53.2153,302.7578,57.3055,35.4564,0.0027493,0.00043684,0.0,0 STARLINK-3137,1 49449U 21104AT  22067.58334491  .00043684  00000-0  27493-2 0  9994,2 49449  53.2153 302.7578 0001932  57.3055  35.4564 15.08794014 19133,6918.021,95.44,541.2230000000002,538.549,0.0
49449.0,STARLINK-3137,PAYLOAD,2022-03-08 22:00:00,15.08822745,0.0002095,53.2153,301.2632,53.5757,50.746,-0.00067734,-0.00011047,0.0,0 STARLINK-3137,1 49449U 21104AT  22067.91667824 -.00011047  00000-0 -67734-3 0  9993,2 49449  53.2153 301.2632 0002095  53.5757  50.7460 15.08822745  3597,6917.933000000001,95.439,541.247,538.349,0.0
49449.0,STARLINK-3137,PAYLOAD,2022-03-09 06:00:00,15.08837818,0.000208,53.2151,299.7664,52.0589,63.828,-0.0011781,-0.00018988,0.0,0 STARLINK-3137,1 49449U 21104AT  22068.25001157 -.00018988  00000-0 -11781-2 0  9993,2 49449  53.2151 299.7664 0002080  52.0589  63.8280 15.08837818 19232,6917.887,95.438,541.191,538.313,0.0
49449.0,STARLINK-3137,PAYLOAD,2022-03-09 14:00:01,15.08815699,0.000201,53.2152,298.2685,58.2801,69.1871,0.0023465,0.0003723,0.0,0 STARLINK-3137,1 49449U 21104AT  22068.58334491  .00037230  00000-0  23465-2 0  9990,2 49449  53.2152 298.2685 0002010  58.2801  69.1871 15.08815699  3611,6917.955,95.439,541.21,538.429,0.0
49449.0,STARLINK-3137,PAYLOAD,2022-03-09 22:00:01,15.0883618,0.0002184,53.2153,296.7739,54.1728,84.9388,-0.00041363,-6.865e-05,0.0,0 STARLINK-3137,1 49449U 21104AT  22068.91668981 -.00006865  00000-0 -41363-3 0  9991,2 49449  53.2153 296.7739 0002184  54.1728  84.9388 15.08836180  3593,6917.892,95.438,541.268,538.246,0.0
49449.0,STARLINK-3137,PAYLOAD,2022-03-10 06:00:00,15.0885428,0.0002157,53.2153,295.277,53.2477,97.3827,-0.001513,-0.00024297,0.0,0 STARLINK-3137,1 49449U 21104AT  22069.25001157 -.00024297  00000-0 -15130-2 0  9996,2 49449  53.2153 295.2770 0002157  53.2477  97.3827 15.08854280 19384,6917.837,95.437,541.194,538.21,0.0
49449.0,STARLINK-3137,PAYLOAD,2022-03-10 14:00:01,15.08835833,0.0002109,53.2157,293.7793,59.1681,103.0641,0.0019912,0.00031541,0.0,0 STARLINK-3137,1 49449U 21104AT  22069.58334491  .00031541  00000-0  19912-2 0  9992,2 49449  53.2157 293.7793 0002109  59.1681 103.0641 15.08835833  3560,6917.893,95.438,541.217,538.299,0.0
